{"fetched_at":"2026-03-29T02:12:04Z","count":15717,"tles":[{"name":"KUIPER-00214","line1":"1 67778U 26030Q   26087.53403386  .00034778  00000+0  93763-3 0  9990","line2":"2 67778  51.8845 127.9063 0001858  36.6662 323.4452 15.37481260  7992","category":"Other"}]}